SOMP
1 39134U 13015E   21098.28991114  .00002465  00000-0  11534-3 0  9999
2 39134  64.8650  40.5860 0005169 253.0267 107.0295 15.22280690440535
